CAS-2T & KS-1Q          
1 41847U 16066G   20301.89006705  .00000145  00000-0  32301-4 0  9997
2 41847  98.6383 353.6353 0365410 194.0409 165.0403 14.38102747208452
NAYIF-1 (EO-88)         
1 42017U 17008BX  20301.75177752  .00002761  00000-0  10727-3 0  9993
2 42017  97.3472   7.3143 0005480 199.0572 161.0462 15.26892037205736
ZHUHAI-1 02 (CAS-4B)    
1 42759U 17034B   20301.73877277  .00000494  00000-0  43355-4 0  9997
2 42759  43.0192  20.1918 0009312 150.3208 353.1835 15.09921679185969
ZHUHAI-1 01 (CAS-4A)    
1 42761U 17034D   20301.74264016  .00000538  00000-0  45922-4 0  9993
2 42761  43.0195  19.3821 0009656 150.4257 354.9026 15.10001446185968
MAX VALIER SAT          
1 42778U 17036P   20301.88715749  .00001414  00000-0  63265-4 0  9996
2 42778  97.2899 351.7632 0010408 276.8919  83.1134 15.22859706185881
RADFXSAT (FOX-1B)       
1 43017U 17073E   20301.72156177  .00001364  00000-0  11107-3 0  9992
2 43017  97.7151 208.8059 0256157 339.6642  19.4510 14.79094349158710
FOX-1D (AO-92)          
1 43137U 18004AC  20301.76591472  .00001600  00000-0  68214-4 0  9990
2 43137  97.4341  11.9610 0007891 318.5105  41.5532 15.24388895155200
DIWATA-2B               
1 43678U 18084H   20302.22816430  .00000160  00000-0  21687-4 0  9997
2 43678  97.8985  60.7416 0011364  96.5123 263.7409 14.91662269108816
ES'HAIL 2               
1 43700U 18090A   20301.87688135  .00000138  00000-0  00000-0 0  9996
2 43700   0.0175 227.8477 0001993   8.3381 141.9543  1.00270592  7034
FOX-1CLIFF (AO-95)      
1 43770U 18099N   20301.89596195  .00000435  00000-0  44803-4 0  9991
2 43770  97.6942  10.8868 0015988 112.8779 247.4131 14.95075919103700
ITASAT 1                
1 43786U 18099AE  20301.79644033  .00000372  00000-0  38740-4 0  9995
2 43786  97.6955  11.3033 0016586 107.7695 252.5338 14.95399523103713
JY1SAT (JO-97)          
1 43803U 18099AX  20301.72777582  .00000449  00000-0  45528-4 0  9991
2 43803  97.6915  11.0251 0016523 108.2426 252.0594 14.95593264103703
PSAT2 (NO-104)          
1 44354U 19036R   20301.91621350  .00013374  00000-0  19055-3 0  9993
2 44354  28.5317 229.1554 0354456 288.1843  68.0473 15.05953186 73794
BRICSAT2 (NO-103)       
1 44355U 19036S   20301.88625188  .00029352  00000-0  39184-3 0  9991
2 44355  28.5305 212.2421 0324109 315.6768  41.8298 15.13685303 73967
JAISAT-1                
1 44419U 19038F   20301.90342365  .00001623  00000-0  95140-4 0  9996
2 44419  97.5557 262.0775 0022543  37.7042 322.5763 15.13009323 72622
DUCHIFAT-3              
1 44854U 19089C   20301.64119302  .00000669  00000-0  60366-4 0  9990
2 44854  36.9665  37.0931 0007904  42.9172 317.2213 14.99169624 48147
RS-44 & BREEZE-KM R/B   
1 44909U 19096E   20301.87744567  .00000015  00000-0  24744-4 0  9996
2 44909  82.5188 267.3119 0216273 276.9788  80.6760 12.79708721 39123
ORBITAL FACTORY 2 (OF-2)
1 45113U 19071C   20301.76823236  .00003586  00000-0  11889-3 0  9997
2 45113  51.6422  84.1512 0012997 171.7829 188.3368 15.33893131 41436
HUSKYSAT-1              
1 45119U 19071J   20301.66426785  .00004189  00000-0  13620-3 0  9995
2 45119  51.6426  84.2072 0012325 168.0378 192.0899 15.34070636 41418
SALSAT                  
1 46495U 20068K   20301.90195439  .00001320  00000-0  10173-3 0  9991
2 46495  97.6687 235.1149 0017338 136.0605 224.2005 15.03232768  4399
